{"type": "FeatureCollection", "features": [ {"type": "Feature", "properties": {"norad_id": 66889, "name": "STARLINK-35852", "group": "last-30-days", "lat": 23.816527899183736, "lon": 179.2329372469873, "alt_km": 361.3674087083846, "timestamp": "2025-12-23T18:59:30.758906+00:00", "meta": {"OBJECT_NAME": "STARLINK-35852", "OBJECT_ID": "2025-283M", "EPOCH": "2025-12-23T06:00:00.999648", "MEAN_MOTION": 15.7041048, "ECCENTRICITY": 0.0001104, "INCLINATION": 53.1591, "RA_OF_ASC_NODE": 21.226, "ARG_OF_PERICENTER": 80.9684, "MEAN_ANOMALY": 248.821, "EPHEMERIS_TYPE": 0, "CLASSIFICATION_TYPE": "U", "NORAD_CAT_ID": 66889, "ELEMENT_SET_NO": 999, "REV_AT_EPOCH": 411, "BSTAR": -0.017993378, "MEAN_MOTION_DOT": -0.01982287, "MEAN_MOTION_DDOT": 0}, "tle": {"line1": "1 66889U 25283M   25357.25001157 -.01982287  00000+0 -17993-1 0  9998", "line2": "2 66889  53.1591  21.2260 0001104  80.9684 248.8210 15.70410480  4118"}}, "geometry": {"type": "Point", "coordinates": [179.2329372469873, 23.816527899183736]}}, {"type": "Feature", "properties": {"norad_id": 66890, "name": "STARLINK-35885", "group": "last-30-days", "lat": 22.362193603597845, "lon": -179.4108952743041, "alt_km": 361.59456549606693, "timestamp": "2025-12-23T18:59:30.758915+00:00", "meta": {"OBJECT_NAME": "STARLINK-35885", "OBJECT_ID": "2025-283N", "EPOCH": "2025-12-23T06:00:00.999648", "MEAN_MOTION": 15.70414882, "ECCENTRICITY": 0.00010549, "INCLINATION": 53.1588, "RA_OF_ASC_NODE": 21.2223, "ARG_OF_PERICENTER": 92.1653, "MEAN_ANOMALY": 239.5399, "EPHEMERIS_TYPE": 0, "CLASSIFICATION_TYPE": "U", "NORAD_CAT_ID": 66890, "ELEMENT_SET_NO": 999, "REV_AT_EPOCH": 411, "BSTAR": -0.018046569, "MEAN_MOTION_DOT": -0.01987741, "MEAN_MOTION_DDOT": 0}, "tle": {"line1": "1 66890U 25283N   25357.25001157 -.01987741  00000+0 -18047-1 0  9991", "line2": "2 66890  53.1588  21.2223 0001054  92.1653 239.5399 15.70414882  4115"}}, "geometry": {"type": "Point", "coordinates": [-179.4108952743041, 22.362193603597845]}}, {"type": "Feature", "properties": {"norad_id": 66891, "name": "STARLINK-35855", "group": "last-30-days", "lat": 20.896377706311938, "lon": -178.08251423851843, "alt_km": 361.85682981873106, "timestamp": "2025-12-23T18:59:30.758924+00:00", "meta": {"OBJECT_NAME": "STARLINK-35855", "OBJECT_ID": "2025-283P", "EPOCH": "2025-12-23T06:00:00.999648", "MEAN_MOTION": 15.70409724, "ECCENTRICITY": 0.00010684, "INCLINATION": 53.1589, "RA_OF_ASC_NODE": 21.2184, "ARG_OF_PERICENTER": 89.0067, "MEAN_ANOMALY": 244.619, "EPHEMERIS_TYPE": 0, "CLASSIFICATION_TYPE": "U", "NORAD_CAT_ID": 66891, "ELEMENT_SET_NO": 999, "REV_AT_EPOCH": 411, "BSTAR": -0.017999554, "MEAN_MOTION_DOT": -0.01982804, "MEAN_MOTION_DDOT": 0}, "tle": {"line1": "1 66891U 25283P   25357.25001157 -.01982804  00000+0 -18000-1 0  9996", "line2": "2 66891  53.1589  21.2184 0001068  89.0067 244.6190 15.70409724  4117"}}, "geometry": {"type": "Point", "coordinates": [-178.08251423851843, 20.896377706311938]}}, {"type": "Feature", "properties": {"norad_id": 66892, "name": "STARLINK-35883", "group": "last-30-days", "lat": 19.420517922134046, "lon": -176.78012410806733, "alt_km": 362.104017132212, "timestamp": "2025-12-23T18:59:30.758933+00:00", "meta": {"OBJECT_NAME": "STARLINK-35883", "OBJECT_ID": "2025-283Q", "EPOCH": "2025-12-23T06:00:00.999648", "MEAN_MOTION": 15.70411507, "ECCENTRICITY": 0.00010706, "INCLINATION": 53.1591, "RA_OF_ASC_NODE": 21.2144, "ARG_OF_PERICENTER": 90.3044, "MEAN_ANOMALY": 245.2357, "EPHEMERIS_TYPE": 0, "CLASSIFICATION_TYPE": "U", "NORAD_CAT_ID": 66892, "ELEMENT_SET_NO": 999, "REV_AT_EPOCH": 405, "BSTAR": -0.018005281, "MEAN_MOTION_DOT": -0.01983494, "MEAN_MOTION_DDOT": 0}, "tle": {"line1": "1 66892U 25283Q   25357.25001157 -.01983494  00000+0 -18005-1 0  9998", "line2": "2 66892  53.1591  21.2144 0001070  90.3044 245.2357 15.70411507  4057"}}, "geometry": {"type": "Point", "coordinates": [-176.78012410806733, 19.420517922134046]}}, {"type": "Feature", "properties": {"norad_id": 66893, "name": "STARLINK-36033", "group": "last-30-days", "lat": 17.93592571384676, "lon": -175.50201916108045, "alt_km": 362.4008435028909, "timestamp": "2025-12-23T18:59:30.758942+00:00", "meta": {"OBJECT_NAME": "STARLINK-36033", "OBJECT_ID": "2025-283R", "EPOCH": "2025-12-23T06:00:00.999648", "MEAN_MOTION": 15.70408984, "ECCENTRICITY": 0.00010462, "INCLINATION": 53.1591, "RA_OF_ASC_NODE": 21.2102, "ARG_OF_PERICENTER": 83.9718, "MEAN_ANOMALY": 253.4885, "EPHEMERIS_TYPE": 0, "CLASSIFICATION_TYPE": "U", "NORAD_CAT_ID": 66893, "ELEMENT_SET_NO": 999, "REV_AT_EPOCH": 411, "BSTAR": -0.017997482, "MEAN_MOTION_DOT": -0.01982531, "MEAN_MOTION_DDOT": 0}, "tle": {"line1": "1 66893U 25283R   25357.25001157 -.01982531  00000+0 -17997-1 0  9999", "line2": "2 66893  53.1591  21.2102 0001046  83.9718 253.4885 15.70408984  4110"}}, "geometry": {"type": "Point", "coordinates": [-175.50201916108045, 17.93592571384676]}}, {"type": "Feature", "properties": {"norad_id": 66894, "name": "STARLINK-35718", "group": "last-30-days", "lat": 16.44197370035729, "lon": -174.24350943551775, "alt_km": 362.6378196445685, "timestamp": "2025-12-23T18:59:30.758952+00:00", "meta": {"OBJECT_NAME": "STARLINK-35718", "OBJECT_ID": "2025-283S", "EPOCH": "2025-12-23T06:00:00.999648", "MEAN_MOTION": 15.70409262, "ECCENTRICITY": 0.00010485, "INCLINATION": 53.1591, "RA_OF_ASC_NODE": 21.2069, "ARG_OF_PERICENTER": 85.8285, "MEAN_ANOMALY": 253.546, "EPHEMERIS_TYPE": 0, "CLASSIFICATION_TYPE": "U", "NORAD_CAT_ID": 66894, "ELEMENT_SET_NO": 999, "REV_AT_EPOCH": 411, "BSTAR": -0.017970152, "MEAN_MOTION_DOT": -0.01979898, "MEAN_MOTION_DDOT": 0}, "tle": {"line1": "1 66894U 25283S   25357.25001157 -.01979898  00000+0 -17970-1 0  9993", "line2": "2 66894  53.1591  21.2069 0001048  85.8285 253.5460 15.70409262  4115"}}, "geometry": {"type": "Point", "coordinates": [-174.24350943551775, 16.44197370035729]}}, {"type": "Feature", "properties": {"norad_id": 66895, "name": "STARLINK-35971", "group": "last-30-days", "lat": 13.434609717068806, "lon": -171.78732152905908, "alt_km": 363.2116450205631, "timestamp": "2025-12-23T18:59:30.758963+00:00", "meta": {"OBJECT_NAME": "STARLINK-35971", "OBJECT_ID": "2025-283T", "EPOCH": "2025-12-23T06:00:00.999648", "MEAN_MOTION": 15.70410432, "ECCENTRICITY": 9.166e-05, "INCLINATION": 53.1589, "RA_OF_ASC_NODE": 21.1971, "ARG_OF_PERICENTER": 80.5155, "MEAN_ANOMALY": 262.6942, "EPHEMERIS_TYPE": 0, "CLASSIFICATION_TYPE": "U", "NORAD_CAT_ID": 66895, "ELEMENT_SET_NO": 999, "REV_AT_EPOCH": 411, "BSTAR": -0.017988843, "MEAN_MOTION_DOT": -0.01981701, "MEAN_MOTION_DDOT": 0}, "tle": {"line1": "1 66895U 25283T   25357.25001157 -.01981701  00000+0 -17989-1 0  9990", "line2": "2 66895  53.1589  21.1971 0000916  80.5155 262.6942 15.70410432  4112"}}, "geometry": {"type": "Point", "coordinates": [-171.78732152905908, 13.434609717068806]}}, {"type": "Feature", "properties": {"norad_id": 66896, "name": "STARLINK-35791", "group": "last-30-days", "lat": 14.938516069260197, "lon": -173.0047226708447, "alt_km": 362.9118464444191, "timestamp": "2025-12-23T18:59:30.758972+00:00", "meta": {"OBJECT_NAME": "STARLINK-35791", "OBJECT_ID": "2025-283U", "EPOCH": "2025-12-23T06:00:00.999648", "MEAN_MOTION": 15.70329176, "ECCENTRICITY": 5.905e-05, "INCLINATION": 53.1591, "RA_OF_ASC_NODE": 21.2014, "ARG_OF_PERICENTER": 81.2567, "MEAN_ANOMALY": 260.0941, "EPHEMERIS_TYPE": 0, "CLASSIFICATION_TYPE": "U", "NORAD_CAT_ID": 66896, "ELEMENT_SET_NO": 999, "REV_AT_EPOCH": 411, "BSTAR": -0.017168764, "MEAN_MOTION_DOT": -0.01895569, "MEAN_MOTION_DDOT": 0}, "tle": {"line1": "1 66896U 25283U   25357.25001157 -.01895569  00000+0 -17169-1 0  9997", "line2": "2 66896  53.1591  21.2014 0000590  81.2567 260.0941 15.70329176  4113"}}, "geometry": {"type": "Point", "coordinates": [-173.0047226708447, 14.938516069260197]}}, {"type": "Feature", "properties": {"norad_id": 66897, "name": "STARLINK-36079", "group": "last-30-days", "lat": 11.921434528220555, "lon": -170.58113428404633, "alt_km": 363.4410855015276, "timestamp": "2025-12-23T18:59:30.758983+00:00", "meta": {"OBJECT_NAME": "STARLINK-36079", "OBJECT_ID": "2025-283V", "EPOCH": "2025-12-23T06:00:00.999648", "MEAN_MOTION": 15.7040875, "ECCENTRICITY": 9.625e-05, "INCLINATION": 53.1592, "RA_OF_ASC_NODE": 21.1938, "ARG_OF_PERICENTER": 82.0569, "MEAN_ANOMALY": 263.0711, "EPHEMERIS_TYPE": 0, "CLASSIFICATION_TYPE": "U", "NORAD_CAT_ID": 66897, "ELEMENT_SET_NO": 999, "REV_AT_EPOCH": 411, "BSTAR": -0.017973168, "MEAN_MOTION_DOT": -0.01980088, "MEAN_MOTION_DDOT": 0}, "tle": {"line1": "1 66897U 25283V   25357.25001157 -.01980088  00000+0 -17973-1 0  9992", "line2": "2 66897  53.1592  21.1938 0000962  82.0569 263.0711 15.70408750  4117"}}, "geometry": {"type": "Point", "coordinates": [-170.58113428404633, 11.921434528220555]}}, {"type": "Feature", "properties": {"norad_id": 66898, "name": "STARLINK-36065", "group": "last-30-days", "lat": 10.405273139505166, "lon": -169.3910379600224, "alt_km": 363.68030636508684, "timestamp": "2025-12-23T18:59:30.758992+00:00", "meta": {"OBJECT_NAME": "STARLINK-36065", "OBJECT_ID": "2025-283W", "EPOCH": "2025-12-23T06:00:00.999648", "MEAN_MOTION": 15.704094, "ECCENTRICITY": 0.00010522, "INCLINATION": 53.1593, "RA_OF_ASC_NODE": 21.1896, "ARG_OF_PERICENTER": 79.3573, "MEAN_ANOMALY": 267.6844, "EPHEMERIS_TYPE": 0, "CLASSIFICATION_TYPE": "U", "NORAD_CAT_ID": 66898, "ELEMENT_SET_NO": 999, "REV_AT_EPOCH": 411, "BSTAR": -0.01798105, "MEAN_MOTION_DOT": -0.0198097, "MEAN_MOTION_DDOT": 0}, "tle": {"line1": "1 66898U 25283W   25357.25001157 -.01980970  00000+0 -17981-1 0  9992", "line2": "2 66898  53.1593  21.1896 0001052  79.3573 267.6844 15.70409400  4117"}}, "geometry": {"type": "Point", "coordinates": [-169.3910379600224, 10.405273139505166]}}]}